#dP2020 10  3  0  0  0.00000000      96 __u+U ITR00 FIT  IAC
## 2125 518400.00000000   900.00000000 59125 0.0000000000000
+  115   C06C07C08C09C10C11C12C13C14C16C19C20C21C22C23C24C25
+        C26C27C28C29C30C32C33C34C35C36C37C38C39C40C43C44C45
+        C46E01E02E03E04E05E07E08E09E11E12E13E14E15E18E19E21
+        E24E25E26E27E30E31E33E36G01G02G03G04G05G06G07G08G09
+        G10G11G12G13G15G16G17G18G19G20G21G22G24G25G26G27G28
+        G29G30G31G32J01J02J03R01R02R03R04R05R07R08R09R11R12
+        R13R14R15R16R17R18R19R20R21R22R23R24R26  0  0  0  0
++         7  7  9  7  7  7  7  9  7  6  6  7  7  6  6  7  7
++         7  6  7  5  7  7  8  6  7  6  7 10 10  0  8  8  8
++         9  6  7  5  6  7  6  6  6  6  7  5  6  6  7  6  4
++         6  7  7  5  6  6  6  6  6  7  5  6  6  6  5  5  4
++         6  6  5  6  5  6  6  6  6  6  6  5  7  6  5  6  5
++         6  5  7  6  8  9  8  7  7  7  6  6  6  6  9  7  7
++         7  6  6  7 10  8  6  6  8  7  6  7  7  0  0  0  0
%c M  cc GPS ccc cccc cccc cccc cccc ccccc ccccc ccccc ccccc
%c cc cc ccc ccc cccc cccc cccc cccc ccccc ccccc ccccc ccccc
%f  0.0000000  0.000000000  0.00000000000  0.000000000000000
%f  0.0000000  0.000000000  0.00000000000  0.000000000000000
%i    0    0    0    0      0      0      0      0         0
%i    0    0    0    0      0      0      0      0         0
/* INFORMATION & ANALYSIS CENTER (IAC)      ULTRA-RAPID DATA
/* S/V CLOCKS ARE ALIGNED TO GNSS TIME                      
/* G:C1WC2W R:C1PC2P E:C1XC5X C:C2IC6I J:C1CC2S             
/* PCV:IGS14_2118 OL/AL:FES2004  NONE     YN ORB:CoN CLK:CoN
*  2020 10 03 15 45  0.00000000
PC06 -18434.792489  37467.883910  -3227.349722     28.083442
PC07  -9408.530374  27091.975021  31281.306650    -66.859272
PC08 -23205.140468  20603.150726 -28643.935156   -575.697182
PC09  -9344.122331  39247.369569  11774.985769    849.689402
PC10   4444.803376  34237.142307  24710.511894   -172.386228
PC11  19587.165409 -17676.917101  -8935.122367   -660.832959
PC12  17662.408475   -705.837461 -21549.347125    538.384661
PC13  -7513.001078  23592.896242 -34104.799476    677.730178
PC14  13072.034438  -9445.836002  22788.155328    -15.908572
PC16 -16211.236544  38796.926364   -396.978414   -592.673174
PC19  -6443.712309  18300.965231 -20046.324458    568.583718
PC20 -16935.453956    466.776188 -22162.349737   -852.744253
PC21  17736.956779  18472.221118  11120.620042   -689.218334
PC22   8002.606970  26011.931139  -6243.469533   -769.768125
PC23  -5326.308759 -16200.224816 -22075.121498   -880.623033
PC24  27416.195592  -1416.577919  -4937.664705   -722.662207
PC25  14939.342973 -13155.196685 -19548.928179   -778.338216
PC26  23636.375932   9383.033956  11452.845890    853.272333
PC27 -12770.229216  -9379.611750  22955.391577    409.470445
PC28   2417.124432 -22742.304168  15983.830156   -162.720126
PC29 -15271.419880  23357.935707    320.009300    292.346403
PC30 -20062.032165   9803.763164  16726.933169    384.514942
PC32 -17860.136486 -18346.187898 -11082.977404   -904.696387
PC33   6466.943584 -18250.422498  20087.354311   -805.120371
PC34  20173.645104 -10294.662120 -16319.566338   -840.522975
PC35  -1787.797141  22926.973546 -15792.365788   -624.984866
PC36 -15504.132189  12708.191594  19445.037073   -893.434589
PC37 -22988.221932 -10277.139477 -12018.075868   -907.491089
PC38 -18800.505629  23560.352898 -29557.994576 999999.999999
PC39 -12482.675465  40199.401659   1158.044256     23.306833
PC40   2194.166715  31959.658910  27546.802183 999999.999999
PC43  15617.177916 -23126.660760   -693.654062   -400.225446
PC44  13080.028221   9187.658705 -22878.734557   -187.834965
PC45   5395.151195  16078.994048  22171.824429    246.608578
PC46 -27289.738420   1924.536076   5611.152000 999999.999999
PE01  25556.399775   3544.758865 -14498.387400   -953.718378
PE02 -25525.767547  -3445.900437  14602.540540    166.179006
PE03 -16982.806333   3611.652145 -23979.995903   -349.673760
PE04  10626.933782 -23151.898100  15072.259051   -619.669821
PE05 -13462.140593 -18337.124242 -18940.241085   -340.933334
PE07   2111.824632  29390.385419   2886.319549   -443.987417
PE08 -10258.141314  23417.333222 -14934.731255   6111.833249
PE09  -2351.112721 -29342.900696  -3019.258105   5910.809800
PE11   2806.046453 -18914.776274  22587.441785   5959.688158
PE12  21135.773473 -18951.966567   8392.343993   5574.836566
PE13  -3072.428474  18959.550648 -22522.173643    404.080473
PE14   2186.968689 -24151.936056   6114.013465  -1177.541769
PE15 -20970.979152  19061.643943  -8556.466935    850.042891
PE18   7618.990118  24935.603348 -18218.470459  -1286.379495
PE19  16962.247927   -990.809577  24237.270112     93.915807
PE21  24316.193506  16546.696462   3355.167814   -624.757549
PE24  -8287.775335 -20302.604531 -19891.819973   -509.946535
PE25 -24254.705557 -16603.697359  -3474.922832   -517.597390
PE26  17114.656741   7528.459471 -22942.406550   2655.242218
PE27   8836.285784  20281.650765  19676.742379    121.124964
PE30 -12366.750776  11683.884075  24224.026295   3535.038273
PE31  11733.042682 -12075.228166 -24329.321559   -474.565128
PE33  26531.258519  -7961.718322 -10425.038506   -462.626240
PE36 -16626.933988  -7714.793585  23245.899104    499.325371
PG01    428.484463  15171.170324 -22001.874066     34.530395
PG02  19167.541166 -15267.770068  10851.186780   -524.772816
PG03   9776.918810  21336.050896 -12613.497148   -316.255154
PG04    681.080124  24468.312414  10265.154661   -141.452914
PG05   9455.954530 -12055.087657  21538.110966    -22.537055
PG06  25820.361655  -5468.267103  -3094.418496   -330.621332
PG07  17889.876707   8425.969383  18279.957777   -385.718245
PG08  -5799.040547  25770.190207      9.966400    -50.175846
PG09   9808.762837  16269.149306  18496.275724   -294.998535
PG10 -21822.287339  -8773.165926 -12496.108725   -470.474879
PG11  -6727.933248  21767.982053 -14404.615718   -147.142228
PG12  -6699.425324 -21631.347408 -14233.591053     58.985283
PG13  13341.614641 -21838.571412   6761.619815     51.175044
PG15   2491.006507 -26224.821483  -1175.229294   -199.460515
PG16  -9017.448651  11944.289621  21685.829558   -217.436069
PG17  15375.851281  -2308.652247 -21099.402294    334.648759
PG18 -18474.417650  -7578.586955  17525.945187    301.024834
PG19  16607.940785  -9304.120099 -18782.000906    -96.660751
PG20 -22006.941044 -15099.612971   -773.823095    526.525471
PG21 -18366.740603  15039.304170 -10857.069378     53.843004
PG22   3277.202221  19394.033739 -17719.705899   -747.633002
PG24   2351.367793 -16912.086995 -20470.156507    -19.355726
PG25 -16785.564356 -20321.140703  -4521.318531     -0.277884
PG26 -18544.550952   1931.745437  18969.866473    289.198818
PG27 -12334.346350  20721.502989  10591.205689   -410.033072
PG28  20346.275234   9357.195995 -13572.997143    671.893483
PG29  -6028.681593 -19092.018602  17390.526400   -207.885337
PG30  24390.093906   1713.938427  10688.243506   -313.244958
PG31 -26062.401296   6238.415283   -983.839772    -72.613176
PG32 -15880.210668   3169.986624 -20937.367367    353.578076
PJ01 -19529.118872  25090.054144 -23154.857338   -342.686782
PJ02 -28175.072364  20922.550073  28268.901134     -4.588570
PJ03 -32489.215021  25868.429269  12444.358841     -1.638265
PR01 -12830.826069  -9189.304052 -20040.335805     68.483930
PR02  -6594.967632  13178.891772 -20769.486626    448.315282
PR03   2840.726179  24095.527507  -7754.784782     23.125890
PR04  10497.501504  21219.404605   9510.138745     56.684839
PR05  12200.569643   6445.617149  21452.228488     58.653689
PR07  -3115.210572 -24287.450670   7258.222153    -40.560600
PR08 -10495.547969 -21262.984236  -9380.681640    -54.945939
PR09  16558.123300  -5319.875292 -18667.892490      0.332756
PR11 -19137.421736 -11132.960485 -12600.942866    -39.842335
PR12 -24838.169018  -4456.625854   3824.848265    168.833209
PR13 -16635.981060   5083.368422  18646.048709    -44.705363
PR14   1622.083854  11666.687430  22646.290789     56.188549
PR15  18476.848000  11385.529353  13432.441739    106.993972
PR16  24791.556850   3515.528084  -4533.114237     -6.915847
PR17  -9669.791106  18907.399413 -14160.666960    363.255601
PR18   4368.034113  10215.238800 -22944.202851     51.489380
PR19  15820.825551  -2937.417914 -19787.990345   -113.847926
PR20  19304.273553 -16381.684012  -3236.904682   -423.276503
PR21   8910.657526 -18549.891175  15045.720235   -156.517653
PR22  -5188.728810  -9405.354706  23126.336569    -75.863779
PR23 -18629.991644   9149.469991  14826.742344    336.002200
PR24 -19028.595976  16822.527000   2513.834630     15.499107
PR26  19503.574888 -13953.628705  -8629.643792   -362.034485
EOF
